[{"OBJECT_NAME":"STARLINK-3139","OBJECT_ID":"2021-104T","EPOCH":"2026-03-09T16:13:33.858048","MEAN_MOTION":15.088416,"ECCENTRICITY":0.00012104,"INCLINATION":53.2168,"RA_OF_ASC_NODE":229.1943,"ARG_OF_PERICENTER":85.2734,"MEAN_ANOMALY":274.8396,"EPHEMERIS_TYPE":0,"CLASSIFICATION_TYPE":"U","NORAD_CAT_ID":49425,"ELEMENT_SET_NO":999,"REV_AT_EPOCH":23863,"BSTAR":1.1891648e-5,"MEAN_MOTION_DOT":-9.9e-7,"MEAN_MOTION_DDOT":0},{"OBJECT_NAME":"UNKNOWN","OBJECT_ID":"","EPOCH":"2026-03-07T20:34:11.411328","MEAN_MOTION":13.11333445,"ECCENTRICITY":0.0894896,"INCLINATION":65.8286,"RA_OF_ASC_NODE":264.5373,"ARG_OF_PERICENTER":244.8718,"MEAN_ANOMALY":105.693,"EPHEMERIS_TYPE":0,"CLASSIFICATION_TYPE":"U","NORAD_CAT_ID":81792,"ELEMENT_SET_NO":999,"REV_AT_EPOCH":9119,"BSTAR":0.00068623,"MEAN_MOTION_DOT":1.902e-5,"MEAN_MOTION_DDOT":0}]
